{
  "norad_id": 67408,
  "name": "STARLINK-36509",
  "history": [
    {
      "epoch": "2026-03-28T19:37:21.371808Z",
      "apogee_km": 484.2597057588064,
      "perigee_km": 481.90891411359553,
      "latitude_deg": -4.395701676318959e-06,
      "longitude_deg": 9.23213853694243,
      "height_km": 482.756084877288,
      "semi_major_axis_km": 6861.221309936201,
      "eccentricity": 0.00017131,
      "inclination_deg": 43.0007,
      "raan_deg": 129.8038,
      "arg_perigee_deg": 275.1383,
      "mean_anomaly_deg": 84.9273,
      "mean_motion_rev_day": 15.2756824
    }
  ]
}